[{"OBJECT_NAME":"IRNSS-1D (I04)","OBJECT_ID":"2015-018A","EPOCH":"2023-04-26T19:12:53.803872","MEAN_MOTION":1.00268387,"ECCENTRICITY":0.0022879,"INCLINATION":28.3349,"RA_OF_ASC_NODE":259.8558,"ARG_OF_PERICENTER":179.2747,"MEAN_ANOMALY":175.3395,"EPHEMERIS_TYPE":0,"CLASSIFICATION_TYPE":"U","NORAD_CAT_ID":40547,"ELEMENT_SET_NO":999,"REV_AT_EPOCH":2948,"BSTAR":0,"MEAN_MOTION_DOT":-2.92e-6,"MEAN_MOTION_DDOT":0},{"OBJECT_NAME":"BEIDOU-3S IGSO-1S (C31)","OBJECT_ID":"2015-019A","EPOCH":"2023-04-26T21:16:05.467296","MEAN_MOTION":1.00285853,"ECCENTRICITY":0.0036691,"INCLINATION":51.3353,"RA_OF_ASC_NODE":309.0949,"ARG_OF_PERICENTER":191.197,"MEAN_ANOMALY":129.2936,"EPHEMERIS_TYPE":0,"CLASSIFICATION_TYPE":"U","NORAD_CAT_ID":40549,"ELEMENT_SET_NO":999,"REV_AT_EPOCH":2957,"BSTAR":0,"MEAN_MOTION_DOT":-1.62e-6,"MEAN_MOTION_DDOT":0},{"OBJECT_NAME":"GPS BIIF-10 (PRN 08)","OBJECT_ID":"2015-033A","EPOCH":"2023-04-26T11:45:34.634880","MEAN_MOTION":2.00562184,"ECCENTRICITY":0.0084072,"INCLINATION":54.9558,"RA_OF_ASC_NODE":314.0322,"ARG_OF_PERICENTER":13.2575,"MEAN_ANOMALY":346.9759,"EPHEMERIS_TYPE":0,"CLASSIFICATION_TYPE":"U","NORAD_CAT_ID":40730,"ELEMENT_SET_NO":999,"REV_AT_EPOCH":5697,"BSTAR":0,"MEAN_MOTION_DOT":-4.9e-7,"MEAN_MOTION_DDOT":0},{"OBJECT_NAME":"BEIDOU-3S M2S (C57)","OBJECT_ID":"2015-037A","EPOCH":"2023-04-26T12:15:10.085760","MEAN_MOTION":1.86233335,"ECCENTRICITY":0.0005541,"INCLINATION":55.7326,"RA_OF_ASC_NODE":341.1837,"ARG_OF_PERICENTER":27.0686,"MEAN_ANOMALY":147.7891,"EPHEMERIS_TYPE":0,"CLASSIFICATION_TYPE":"U","NORAD_CAT_ID":40748,"ELEMENT_SET_NO":999,"REV_AT_EPOCH":5274,"BSTAR":0,"MEAN_MOTION_DOT":-9.4e-7,"MEAN_MOTION_DDOT":0},{"OBJECT_NAME":"BEIDOU-3S M1S (C58)","OBJECT_ID":"2015-037B","EPOCH":"2023-04-26T13:30:50.269248","MEAN_MOTION":1.86232986,"ECCENTRICITY":0.0005784,"INCLINATION":55.7367,"RA_OF_ASC_NODE":341.1727,"ARG_OF_PERICENTER":351.2297,"MEAN_ANOMALY":352.7922,"EPHEMERIS_TYPE":0,"CLASSIFICATION_TYPE":"U","NORAD_CAT_ID":40749,"ELEMENT_SET_NO":999,"REV_AT_EPOCH":5273,"BSTAR":0,"MEAN_MOTION_DOT":-9.4e-7,"MEAN_MOTION_DDOT":0},{"OBJECT_NAME":"GSAT0205 (PRN E24)","OBJECT_ID":"2015-045A","EPOCH":"2023-04-26T06:56:40.716960","MEAN_MOTION":1.70473923,"ECCENTRICITY":0.0004804,"INCLINATION":55.4347,"RA_OF_ASC_NODE":253.3172,"ARG_OF_PERICENTER":35.5315,"MEAN_ANOMALY":324.467,"EPHEMERIS_TYPE":0,"CLASSIFICATION_TYPE":"U","NORAD_CAT_ID":40889,"ELEMENT_SET_NO":999,"REV_AT_EPOCH":4744,"BSTAR":0,"MEAN_MOTION_DOT":-1.5e-7,"MEAN_MOTION_DDOT":0},{"OBJECT_NAME":"GSAT0206 (PRN E30)","OBJECT_ID":"2015-045B","EPOCH":"2023-04-26T12:14:29.022432","MEAN_MOTION":1.70473982,"ECCENTRICITY":0.0002886,"INCLINATION":55.4336,"RA_OF_ASC_NODE":253.3068,"ARG_OF_PERICENTER":34.8159,"MEAN_ANOMALY":325.17,"EPHEMERIS_TYPE":0,"CLASSIFICATION_TYPE":"U","NORAD_CAT_ID":40890,"ELEMENT_SET_NO":999,"REV_AT_EPOCH":4747,"BSTAR":0,"MEAN_MOTION_DOT":-1.5e-7,"MEAN_MOTION_DDOT":0},{"OBJECT_NAME":"BEIDOU-3S IGSO-2S (C56)","OBJECT_ID":"2015-053A","EPOCH":"2023-04-26T20:37:36.403968","MEAN_MOTION":1.00267421,"ECCENTRICITY":0.0046203,"INCLINATION":51.014,"RA_OF_ASC_NODE":272.2519,"ARG_OF_PERICENTER":192.2895,"MEAN_ANOMALY":155.5416,"EPHEMERIS_TYPE":0,"CLASSIFICATION_TYPE":"U","NORAD_CAT_ID":40938,"ELEMENT_SET_NO":999,"REV_AT_EPOCH":2784,"BSTAR":0,"MEAN_MOTION_DOT":-1.3e-6,"MEAN_MOTION_DDOT":0},{"OBJECT_NAME":"GPS BIIF-11 (PRN 10)","OBJECT_ID":"2015-062A","EPOCH":"2023-04-26T13:04:08.419296","MEAN_MOTION":2.00562391,"ECCENTRICITY":0.0086372,"INCLINATION":56.0545,"RA_OF_ASC_NODE":75.4431,"ARG_OF_PERICENTER":222.1012,"MEAN_ANOMALY":137.2123,"EPHEMERIS_TYPE":0,"CLASSIFICATION_TYPE":"U","NORAD_CAT_ID":41019,"ELEMENT_SET_NO":999,"REV_AT_EPOCH":5481,"BSTAR":0,"MEAN_MOTION_DOT":-1.7e-7,"MEAN_MOTION_DDOT":0},{"OBJECT_NAME":"GSAT-15 (GAGAN\/PRN 139)","OBJECT_ID":"2015-065A","EPOCH":"2023-04-26T20:36:42.009120","MEAN_MOTION":1.00273473,"ECCENTRICITY":0.0002776,"INCLINATION":0.0496,"RA_OF_ASC_NODE":91.1952,"ARG_OF_PERICENTER":324.524,"MEAN_ANOMALY":201.5347,"EPHEMERIS_TYPE":0,"CLASSIFICATION_TYPE":"U","NORAD_CAT_ID":41028,"ELEMENT_SET_NO":999,"REV_AT_EPOCH":2730,"BSTAR":0,"MEAN_MOTION_DOT":-2.6e-6,"MEAN_MOTION_DDOT":0},{"OBJECT_NAME":"GSAT0208 (PRN E08)","OBJECT_ID":"2015-079B","EPOCH":"2023-04-25T03:24:14.734080","MEAN_MOTION":1.70474674,"ECCENTRICITY":0.0004763,"INCLINATION":55.252,"RA_OF_ASC_NODE":132.8298,"ARG_OF_PERICENTER":300.5537,"MEAN_ANOMALY":59.4357,"EPHEMERIS_TYPE":0,"CLASSIFICATION_TYPE":"U","NORAD_CAT_ID":41175,"ELEMENT_SET_NO":999,"REV_AT_EPOCH":4560,"BSTAR":0,"MEAN_MOTION_DOT":4.2e-7,"MEAN_MOTION_DDOT":0},{"OBJECT_NAME":"IRNSS-1E (I05)","OBJECT_ID":"2016-003A","EPOCH":"2023-04-26T20:43:30.969696","MEAN_MOTION":1.00266991,"ECCENTRICITY":0.0018182,"INCLINATION":30.6872,"RA_OF_ASC_NODE":79.7788,"ARG_OF_PERICENTER":184.7021,"MEAN_ANOMALY":12.6409,"EPHEMERIS_TYPE":0,"CLASSIFICATION_TYPE":"U","NORAD_CAT_ID":41241,"ELEMENT_SET_NO":999,"REV_AT_EPOCH":2657,"BSTAR":0,"MEAN_MOTION_DOT":-2.84e-6,"MEAN_MOTION_DDOT":0},{"OBJECT_NAME":"GPS BIIF-12 (PRN 32)","OBJECT_ID":"2016-007A","EPOCH":"2023-04-25T03:17:17.695968","MEAN_MOTION":2.00556274,"ECCENTRICITY":0.0070509,"INCLINATION":54.9807,"RA_OF_ASC_NODE":135.0996,"ARG_OF_PERICENTER":234.3027,"MEAN_ANOMALY":125.0793,"EPHEMERIS_TYPE":0,"CLASSIFICATION_TYPE":"U","NORAD_CAT_ID":41328,"ELEMENT_SET_NO":999,"REV_AT_EPOCH":5279,"BSTAR":0,"MEAN_MOTION_DOT":2.5e-7,"MEAN_MOTION_DDOT":0},{"OBJECT_NAME":"COSMOS 2514 (751)","OBJECT_ID":"2016-008A","EPOCH":"2023-04-26T11:21:21.630528","MEAN_MOTION":2.13102864,"ECCENTRICITY":0.000785,"INCLINATION":65.5354,"RA_OF_ASC_NODE":352.1058,"ARG_OF_PERICENTER":208.4831,"MEAN_ANOMALY":151.5233,"EPHEMERIS_TYPE":0,"CLASSIFICATION_TYPE":"U","NORAD_CAT_ID":41330,"ELEMENT_SET_NO":999,"REV_AT_EPOCH":5616,"BSTAR":0,"MEAN_MOTION_DOT":-7.9e-7,"MEAN_MOTION_DDOT":0},{"OBJECT_NAME":"IRNSS-1F (I06)","OBJECT_ID":"2016-015A","EPOCH":"2023-04-26T21:06:42.744960","MEAN_MOTION":1.00275656,"ECCENTRICITY":0.0020495,"INCLINATION":2.6759,"RA_OF_ASC_NODE":136.3647,"ARG_OF_PERICENTER":196.0144,"MEAN_ANOMALY":231.3369,"EPHEMERIS_TYPE":0,"CLASSIFICATION_TYPE":"U","NORAD_CAT_ID":41384,"ELEMENT_SET_NO":999,"REV_AT_EPOCH":2615,"BSTAR":0,"MEAN_MOTION_DOT":1.6e-6,"MEAN_MOTION_DDOT":0},{"OBJECT_NAME":"BEIDOU-2 IGSO-6 (C13)","OBJECT_ID":"2016-021A","EPOCH":"2023-04-26T20:13:38.231040","MEAN_MOTION":1.00264673,"ECCENTRICITY":0.0047072,"INCLINATION":58.5637,"RA_OF_ASC_NODE":49.6013,"ARG_OF_PERICENTER":226.2708,"MEAN_ANOMALY":337.2234,"EPHEMERIS_TYPE":0,"CLASSIFICATION_TYPE":"U","NORAD_CAT_ID":41434,"ELEMENT_SET_NO":999,"REV_AT_EPOCH":2597,"BSTAR":0,"MEAN_MOTION_DOT":-1.58e-6,"MEAN_MOTION_DDOT":0}]
