IRNSS-1D                
1 40547U 15018A   23116.80062273 -.00000292  00000+0  00000+0 0  9998
2 40547  28.3349 259.8558 0022879 179.2747 175.3395  1.00268387 29489
BEIDOU-3S IGSO-1S       
1 40549U 15019A   23116.88617439 -.00000162  00000+0  00000+0 0  9995
2 40549  51.3353 309.0949 0036691 191.1970 129.2936  1.00285853 29578
NAVSTAR 74 (USA 262)    
1 40730U 15033A   23116.48998420 -.00000049  00000+0  00000+0 0  9995
2 40730  54.9558 314.0322 0084072  13.2575 346.9759  2.00562184 56979
BEIDOU-3S M2S           
1 40748U 15037A   23116.51053340 -.00000094  00000+0  00000+0 0  9995
2 40748  55.7326 341.1837 0005541  27.0686 147.7891  1.86233335 52743
BEIDOU-3S M1S           
1 40749U 15037B   23116.56308182 -.00000094  00000+0  00000+0 0  9998
2 40749  55.7367 341.1727 0005784 351.2297 352.7922  1.86232986 52739
GSAT0205 (GALILEO 9)    
1 40889U 15045A   23116.28936015 -.00000015  00000+0  00000+0 0  9996
2 40889  55.4347 253.3172 0004804  35.5315 324.4670  1.70473923 47441
GSAT0206 (GALILEO 10)   
1 40890U 15045B   23116.51005813 -.00000015  00000+0  00000+0 0  9997
2 40890  55.4336 253.3068 0002886  34.8159 325.1700  1.70473982 47471
BEIDOU-3S IGSO-2S       
1 40938U 15053A   23116.85944912 -.00000130  00000+0  00000+0 0  9996
2 40938  51.0140 272.2519 0046203 192.2895 155.5416  1.00267421 27847
NAVSTAR 75 (USA 265)    
1 41019U 15062A   23116.54454189 -.00000017  00000+0  00000+0 0  9999
2 41019  56.0545  75.4431 0086372 222.1012 137.2123  2.00562391 54817
GSAT-15                 
1 41028U 15065A   23116.85881955 -.00000260  00000+0  00000+0 0  9991
2 41028   0.0496  91.1952 0002776 324.5240 201.5347  1.00273473 27306
GSAT0208 (GALILEO 11)   
1 41175U 15079B   23115.14183720  .00000042  00000+0  00000+0 0  9992
2 41175  55.2520 132.8298 0004763 300.5537  59.4357  1.70474674 45603
IRNSS-1E                
1 41241U 16003A   23116.86355289 -.00000284  00000+0  00000+0 0  9994
2 41241  30.6872  79.7788 0018182 184.7021  12.6409  1.00266991 26575
NAVSTAR 76 (USA 266)    
1 41328U 16007A   23115.13701037  .00000025  00000+0  00000+0 0  9991
2 41328  54.9807 135.0996 0070509 234.3027 125.0793  2.00556274 52799
COSMOS 2514 [GLONASS-M] 
1 41330U 16008A   23116.47316702 -.00000079  00000+0  00000+0 0  9994
2 41330  65.5354 352.1058 0007850 208.4831 151.5233  2.13102864 56166
IRNSS-1F                
1 41384U 16015A   23116.87966140  .00000160  00000+0  00000+0 0  9992
2 41384   2.6759 136.3647 0020495 196.0144 231.3369  1.00275656 26159
BEIDOU-2 IGSO-6         
1 41434U 16021A   23116.84280360 -.00000158  00000+0  00000+0 0  9993
2 41434  58.5637  49.6013 0047072 226.2708 337.2234  1.00264673 25978
